NORAD_CAT_ID,OBJECT_NAME,OBJECT_TYPE,EPOCH,MEAN_MOTION,ECCENTRICITY,INCLINATION,RA_OF_ASC_NODE,ARG_OF_PERICENTER,MEAN_ANOMALY,BSTAR,MEAN_MOTION_DOT,MEAN_MOTION_DDOT,TLE_LINE0,TLE_LINE1,TLE_LINE2,SEMIMAJOR_AXIS,PERIOD,APOGEE,PERIGEE,DECAYED
52095.0,STARLINK-3701,PAYLOAD,2024-05-14 13:01:54,15.08875554,0.000136,53.2149,190.5938,88.2937,271.8211,0.00074583,0.00011613,0.0,0 STARLINK-3701,1 52095U 22029H   24135.54298690  .00011613  00000-0  74583-3 0  9996,2 52095  53.2149 190.5938 0001360  88.2937 271.8211 15.08875554120394,6917.772,95.435,540.578,538.696,0.0
52095.0,STARLINK-3701,PAYLOAD,2024-05-14 20:58:49,15.08871746,0.0001406,53.2147,189.1072,87.7035,272.4118,0.00038048,5.778e-05,0.0,0 STARLINK-3701,1 52095U 22029H   24135.87418116  .00005778  00000-0  38048-3 0  9990,2 52095  53.2147 189.1072 0001406  87.7035 272.4118 15.08871746120447,6917.783,95.436,540.621,538.676,0.0
52095.0,STARLINK-3701,PAYLOAD,2024-05-15 09:41:53,15.08877528,0.0001393,53.2152,186.728,92.0609,268.0543,0.00045355,6.945e-05,0.0,0 STARLINK-3701,1 52095U 22029H   24136.40409108  .00006945  00000-0  45355-3 0  9997,2 52095  53.2152 186.7280 0001393  92.0609 268.0543 15.08877528120524,6917.766,95.435,540.594,538.667,0.0
52095.0,STARLINK-3701,PAYLOAD,2024-05-15 20:49:34,15.08870403,0.0001398,53.2151,184.6438,97.2485,262.8666,0.00020035,2.905e-05,0.0,0 STARLINK-3701,1 52095U 22029H   24136.86776300  .00002905  00000-0  20035-3 0  9998,2 52095  53.2151 184.6438 0001398  97.2485 262.8666 15.08870403120599,6917.787,95.436,540.62,538.685,0.0
52095.0,STARLINK-3701,PAYLOAD,2024-05-16 09:32:39,15.08871658,0.0001496,53.2162,182.2659,90.565,269.5514,0.00017628,2.521e-05,0.0,0 STARLINK-3701,1 52095U 22029H   24137.39767403  .00002521  00000-0  17628-3 0  9999,2 52095  53.2162 182.2659 0001496  90.5650 269.5514 15.08871658120677,6917.784,95.436,540.684,538.614,0.0
52095.0,STARLINK-3701,PAYLOAD,2024-05-17 09:23:27,15.08821781,0.0001302,53.2155,177.8042,98.0055,262.1085,-0.00048486,-7.992e-05,0.0,0 STARLINK-3701,1 52095U 22029H   24138.39129071 -.00007992  00000-0 -48486-3 0  9998,2 52095  53.2155 177.8042 0001302  98.0055 262.1085 15.08821781120824,6917.936,95.439,540.702,538.9,0.0
52095.0,STARLINK-3701,PAYLOAD,2024-05-18 02:52:42,15.08831462,0.0001207,53.2159,174.5348,90.67,269.4431,-6.3462e-05,-1.297e-05,0.0,0 STARLINK-3701,1 52095U 22029H   24139.11993572 -.00001297  00000-0 -63462-4 0  9998,2 52095  53.2159 174.5348 0001207  90.6700 269.4431 15.08831462120934,6917.906,95.438,540.606,538.936,0.0
52095.0,STARLINK-3701,PAYLOAD,2024-05-18 09:14:14,15.08847102,0.0001284,53.2163,173.3474,95.8838,264.2301,0.00068444,0.00010624,0.0,0 STARLINK-3701,1 52095U 22029H   24139.38489445  .00010624  00000-0  68444-3 0  9992,2 52095  53.2163 173.3474 0001284  95.8838 264.2301 15.08847102120971,6917.859,95.437,540.612,538.835,0.0
52095.0,STARLINK-3701,PAYLOAD,2024-05-18 18:46:34,15.08838082,0.0001401,53.2165,171.5618,92.4193,267.696,0.00090078,0.00014076,0.0,0 STARLINK-3701,1 52095U 22029H   24139.78234132  .00014076  00000-0  90078-3 0  9990,2 52095  53.2165 171.5618 0001401  92.4193 267.6960 15.08838082121034,6917.886,95.438,540.72,538.782,0.0
52095.0,STARLINK-3701,PAYLOAD,2024-05-19 12:15:48,15.0883706,0.0001515,53.2166,168.2939,102.2071,257.9091,0.00024691,3.643e-05,0.0,0 STARLINK-3701,1 52095U 22029H   24140.51098263  .00003643  00000-0  24691-3 0  9992,2 52095  53.2166 168.2939 0001515 102.2071 257.9091 15.08837060121149,6917.889,95.438,540.802,538.706,0.0
52095.0,STARLINK-3701,PAYLOAD,2024-05-20 10:31:12,15.08847903,0.0001613,53.2166,164.1306,104.3406,255.7766,8.1738e-06,-1.58e-06,0.0,0 STARLINK-3701,1 52095U 22029H   24141.43833691 -.00000158  00000-0  81738-5 0  9992,2 52095  53.2166 164.1306 0001613 104.3406 255.7766 15.08847903121283,6917.856,95.437,540.837,538.605,0.0
52095.0,STARLINK-3701,PAYLOAD,2024-05-21 08:46:36,15.08842146,0.0001457,53.2158,159.9642,112.8871,247.2275,0.00011278,1.507e-05,0.0,0 STARLINK-3701,1 52095U 22029H   24142.36569913  .00001507  00000-0  11278-3 0  9996,2 52095  53.2158 159.9642 0001457 112.8871 247.2275 15.08842146121426,6917.874,95.437,540.747,538.731,0.0
52095.0,STARLINK-3701,PAYLOAD,2024-05-22 08:37:23,15.08841444,0.0001366,53.2169,155.5041,102.7096,257.4049,4.7127e-05,4.62e-06,0.0,0 STARLINK-3701,1 52095U 22029H   24143.35930280  .00000462  00000-0  47127-4 0  9997,2 52095  53.2169 155.5041 0001366 102.7096 257.4049 15.08841444121577,6917.876,95.437,540.686,538.796,0.0
52095.0,STARLINK-3701,PAYLOAD,2024-05-23 10:03:34,15.08839241,0.0001408,53.2172,150.7471,86.9501,273.1652,6.4059e-05,7.32e-06,0.0,0 STARLINK-3701,1 52095U 22029H   24144.41914470  .00000732  00000-0  64059-4 0  9991,2 52095  53.2172 150.7471 0001408  86.9501 273.1652 15.08839241121731,6917.883,95.438,540.722,538.774,0.0
52095.0,STARLINK-3701,PAYLOAD,2024-05-24 06:43:36,15.08816462,0.0001497,53.217,146.8812,98.7934,261.3228,-0.00011849,-2.172e-05,0.0,0 STARLINK-3701,1 52095U 22029H   24145.28028221 -.00002172  00000-0 -11849-3 0  9997,2 52095  53.2170 146.8812 0001497  98.7934 261.3228 15.08816462121865,6917.952,95.439,540.853,538.782,0.0
52095.0,STARLINK-3701,PAYLOAD,2024-05-25 04:58:58,15.08837611,0.000114,53.216,142.717,93.5034,266.6089,3.757e-05,3.1e-06,0.0,0 STARLINK-3701,1 52095U 22029H   24146.20762432  .00000310  00000-0  37570-4 0  9999,2 52095  53.2160 142.7170 0001140  93.5034 266.6089 15.08837611122004,6917.888,95.438,540.541,538.964,0.0
52095.0,STARLINK-3701,PAYLOAD,2024-05-25 06:34:21,15.08836111,0.0001161,53.2164,142.4196,98.7592,261.3531,1.8994e-05,1.4e-07,0.0,0 STARLINK-3701,1 52095U 22029H   24146.27386547  .00000014  00000-0  18994-4 0  9995,2 52095  53.2164 142.4196 0001161  98.7592 261.3531 15.08836111122011,6917.892,95.438,540.56,538.954,0.0
52095.0,STARLINK-3701,PAYLOAD,2024-05-26 04:49:45,15.08847804,0.0001078,53.2158,138.2526,94.0965,266.015,1.0162e-05,-1.26e-06,0.0,0 STARLINK-3701,1 52095U 22029H   24147.20121792 -.00000126  00000-0  10162-4 0  9992,2 52095  53.2158 138.2526 0001078  94.0965 266.0150 15.08847804122159,6917.857,95.437,540.467,538.976,0.0
52095.0,STARLINK-3701,PAYLOAD,2024-05-26 06:25:07,15.08852236,0.0001074,53.2168,137.9593,93.6085,266.503,8.722e-05,1.101e-05,0.0,0 STARLINK-3701,1 52095U 22029H   24147.26745335  .00001101  00000-0  87220-4 0  9995,2 52095  53.2168 137.9593 0001074  93.6085 266.5030 15.08852236122162,6917.843,95.437,540.451,538.965,0.0
52095.0,STARLINK-3701,PAYLOAD,2024-05-26 15:57:14,15.09010761,7.57e-05,53.2182,136.1857,172.1039,187.9965,0.0020589,0.00032786,0.0,0 STARLINK-3701,1 52095U 22029H   24147.66474736  .00032786  00000-0  20589-2 0  9999,2 52095  53.2182 136.1857 0000757 172.1039 187.9965 15.09010761122221,6917.358,95.427,539.747,538.7,0.0
52095.0,STARLINK-3701,PAYLOAD,2024-05-27 04:40:34,15.0885809,0.0001285,53.2172,133.7992,87.9288,272.1851,0.00084707,0.00013225,0.0,0 STARLINK-3701,1 52095U 22029H   24148.19483938  .00013225  00000-0  84707-3 0  9992,2 52095  53.2172 133.7992 0001285  87.9288 272.1851 15.08858090122303,6917.825,95.436,540.579,538.801,0.0
52095.0,STARLINK-3701,PAYLOAD,2024-05-27 09:26:43,15.08864721,0.0001187,53.2174,132.9046,103.8219,256.2905,0.00082313,0.00012845,0.0,0 STARLINK-3701,1 52095U 22029H   24148.39355544  .00012845  00000-0  82313-3 0  9993,2 52095  53.2174 132.9046 0001187 103.8219 256.2905 15.08864721122333,6917.805,95.436,540.491,538.849,0.0
52095.0,STARLINK-3701,PAYLOAD,2024-05-27 15:48:15,15.08871669,0.0001287,53.2173,131.716,93.9231,266.1908,0.00086828,0.0001357,0.0,0 STARLINK-3701,1 52095U 22029H   24148.65851048  .00013570  00000-0  86828-3 0  9993,2 52095  53.2173 131.7160 0001287  93.9231 266.1908 15.08871669122376,6917.784,95.436,540.539,538.758,0.0
52095.0,STARLINK-3701,PAYLOAD,2024-05-28 04:31:20,15.0886862,0.0001383,53.2174,129.3362,100.3911,259.7237,0.00082196,0.00012828,0.0,0 STARLINK-3701,1 52095U 22029H   24149.18843561  .00012828  00000-0  82196-3 0  9992,2 52095  53.2174 129.3362 0001383 100.3911 259.7237 15.08868620122454,6917.793,95.436,540.615,538.701,0.0
52095.0,STARLINK-3701,PAYLOAD,2024-05-28 07:42:07,15.08869235,0.0001289,53.2166,128.7415,88.8925,271.2215,0.00079749,0.00012437,0.0,0 STARLINK-3701,1 52095U 22029H   24149.32091655  .00012437  00000-0  79749-3 0  9993,2 52095  53.2166 128.7415 0001289  88.8925 271.2215 15.08869235122477,6917.791,95.436,540.548,538.764,0.0
52095.0,STARLINK-3701,PAYLOAD,2024-05-28 22:00:36,15.08852303,0.0001494,53.2162,126.0661,97.5497,262.5665,0.00082113,0.00012809,0.0,0 STARLINK-3701,1 52095U 22029H   24149.91708984  .00012809  00000-0  82113-3 0  9990,2 52095  53.2162 126.0661 0001494  97.5497 262.5665 15.08852303122566,6917.843,95.437,540.741,538.674,0.0
52095.0,STARLINK-3701,PAYLOAD,2024-05-29 04:22:12,15.08820917,0.0001402,53.2162,124.8758,78.906,281.209,0.00052644,8.096e-05,0.0,0 STARLINK-3701,1 52095U 22029H   24150.18208589  .00008096  00000-0  52644-3 0  9996,2 52095  53.2162 124.8758 0001402  78.9060 281.2090 15.08820917122608,6917.939,95.439,540.774,538.834,0.0
52095.0,STARLINK-3701,PAYLOAD,2024-05-29 07:32:55,15.08863592,0.0001244,53.2164,124.2811,98.7536,261.3597,0.00085907,0.00013419,0.0,0 STARLINK-3701,1 52095U 22029H   24150.31453020  .00013419  00000-0  85907-3 0  9996,2 52095  53.2164 124.2811 0001244  98.7536 261.3597 15.08863592122625,6917.808,95.436,540.534,538.813,0.0
52095.0,STARLINK-3701,PAYLOAD,2024-05-29 21:51:22,15.08875659,0.0001164,53.2161,121.6049,96.5862,263.5263,0.00094371,0.00014778,0.0,0 STARLINK-3701,1 52095U 22029H   24150.91068127  .00014778  00000-0  94371-3 0  9996,2 52095  53.2161 121.6049 0001164  96.5862 263.5263 15.08875659122716,6917.771,95.435,540.442,538.831,0.0
52095.0,STARLINK-3701,PAYLOAD,2024-05-30 04:12:55,15.08879871,0.0001266,53.2167,120.414,96.5781,263.5355,0.00098029,0.00015365,0.0,0 STARLINK-3701,1 52095U 22029H   24151.17563688  .00015365  00000-0  98029-3 0  9994,2 52095  53.2167 120.4140 0001266  96.5781 263.5355 15.08879871122750,6917.759,95.435,540.499,538.748,0.0
